{"type": "FeatureCollection", "features": [ {"type": "Feature", "properties": {"norad_id": 33939, "name": "COSMOS 2251 DEB", "group": "cosmos-2251-debris", "lat": 33.669867918948476, "lon": 112.72063649197109, "alt_km": 569.09679193578, "timestamp": "2025-12-02T08:59:33.107841+00:00", "meta": {"OBJECT_NAME": "COSMOS 2251 DEB", "OBJECT_ID": "1993-036EU", "EPOCH": "2025-12-02T02:25:36.601248", "MEAN_MOTION": 14.98513643, "ECCENTRICITY": 0.0003432, "INCLINATION": 74.0064, "RA_OF_ASC_NODE": 102.261, "ARG_OF_PERICENTER": 128.9391, "MEAN_ANOMALY": 231.2101, "EPHEMERIS_TYPE": 0, "CLASSIFICATION_TYPE": "U", "NORAD_CAT_ID": 33939, "ELEMENT_SET_NO": 999, "REV_AT_EPOCH": 88593, "BSTAR": 0.0041271, "MEAN_MOTION_DOT": 0.00049718, "MEAN_MOTION_DDOT": 0}, "tle": {"line1": "1 33939U 93036EU  25336.10111807  .00049718  00000+0  41271-2 0  9991", "line2": "2 33939  74.0064 102.2610 0003432 128.9391 231.2101 14.98513643885934"}}, "geometry": {"type": "Point", "coordinates": [112.72063649197109, 33.669867918948476]}}, {"type": "Feature", "properties": {"norad_id": 33940, "name": "COSMOS 2251 DEB", "group": "cosmos-2251-debris", "lat": -53.66726503804057, "lon": 6.131361876071028, "alt_km": 695.9640865114225, "timestamp": "2025-12-02T08:59:33.107852+00:00", "meta": {"OBJECT_NAME": "COSMOS 2251 DEB", "OBJECT_ID": "1993-036EV", "EPOCH": "2025-12-01T22:21:22.107168", "MEAN_MOTION": 14.58623365, "ECCENTRICITY": 0.0011771, "INCLINATION": 74.0387, "RA_OF_ASC_NODE": 164.0729, "ARG_OF_PERICENTER": 243.1066, "MEAN_ANOMALY": 187.5388, "EPHEMERIS_TYPE": 0, "CLASSIFICATION_TYPE": "U", "NORAD_CAT_ID": 33940, "ELEMENT_SET_NO": 999, "REV_AT_EPOCH": 88436, "BSTAR": 0.0011139, "MEAN_MOTION_DOT": 5.167e-05, "MEAN_MOTION_DDOT": 0}, "tle": {"line1": "1 33940U 93036EV  25335.93150587  .00005167  00000+0  11139-2 0  9991", "line2": "2 33940  74.0387 164.0729 0011771 243.1066 187.5388 14.58623365884360"}}, "geometry": {"type": "Point", "coordinates": [6.131361876071028, -53.66726503804057]}}, {"type": "Feature", "properties": {"norad_id": 33942, "name": "COSMOS 2251 DEB", "group": "cosmos-2251-debris", "lat": 49.75781889083837, "lon": 94.14897794921889, "alt_km": 764.652345183812, "timestamp": "2025-12-02T08:59:33.107862+00:00", "meta": {"OBJECT_NAME": "COSMOS 2251 DEB", "OBJECT_ID": "1993-036EX", "EPOCH": "2025-12-02T03:26:57.533280", "MEAN_MOTION": 14.37961324, "ECCENTRICITY": 0.0019832, "INCLINATION": 74.0361, "RA_OF_ASC_NODE": 294.3429, "ARG_OF_PERICENTER": 20.0777, "MEAN_ANOMALY": 351.9246, "EPHEMERIS_TYPE": 0, "CLASSIFICATION_TYPE": "U", "NORAD_CAT_ID": 33942, "ELEMENT_SET_NO": 999, "REV_AT_EPOCH": 87982, "BSTAR": 0.00029479, "MEAN_MOTION_DOT": 8.67e-06, "MEAN_MOTION_DDOT": 0}, "tle": {"line1": "1 33942U 93036EX  25336.14372145  .00000867  00000+0  29479-3 0  9992", "line2": "2 33942  74.0361 294.3429 0019832  20.0777 351.9246 14.37961324879827"}}, "geometry": {"type": "Point", "coordinates": [94.14897794921889, 49.75781889083837]}}, {"type": "Feature", "properties": {"norad_id": 33944, "name": "COSMOS 2251 DEB", "group": "cosmos-2251-debris", "lat": 23.86831182779618, "lon": -24.729152349131276, "alt_km": 709.82703384659, "timestamp": "2025-12-02T08:59:33.107872+00:00", "meta": {"OBJECT_NAME": "COSMOS 2251 DEB", "OBJECT_ID": "1993-036EZ", "EPOCH": "2025-12-02T02:30:02.585376", "MEAN_MOTION": 14.37306994, "ECCENTRICITY": 0.0111919, "INCLINATION": 74.04, "RA_OF_ASC_NODE": 328.4936, "ARG_OF_PERICENTER": 70.9021, "MEAN_ANOMALY": 355.9502, "EPHEMERIS_TYPE": 0, "CLASSIFICATION_TYPE": "U", "NORAD_CAT_ID": 33944, "ELEMENT_SET_NO": 999, "REV_AT_EPOCH": 87875, "BSTAR": 0.00032555, "MEAN_MOTION_DOT": 1.017e-05, "MEAN_MOTION_DDOT": 0}, "tle": {"line1": "1 33944U 93036EZ  25336.10419659  .00001017  00000+0  32555-3 0  9999", "line2": "2 33944  74.0400 328.4936 0111919  70.9021 355.9502 14.37306994878756"}}, "geometry": {"type": "Point", "coordinates": [-24.729152349131276, 23.86831182779618]}}, {"type": "Feature", "properties": {"norad_id": 33945, "name": "COSMOS 2251 DEB", "group": "cosmos-2251-debris", "lat": -71.04262333210455, "lon": -91.22126168468901, "alt_km": 794.162818744896, "timestamp": "2025-12-02T08:59:33.107882+00:00", "meta": {"OBJECT_NAME": "COSMOS 2251 DEB", "OBJECT_ID": "1993-036FA", "EPOCH": "2025-12-02T02:40:08.169024", "MEAN_MOTION": 14.34586344, "ECCENTRICITY": 0.0021531, "INCLINATION": 74.0293, "RA_OF_ASC_NODE": 325.7434, "ARG_OF_PERICENTER": 55.4109, "MEAN_ANOMALY": 304.907, "EPHEMERIS_TYPE": 0, "CLASSIFICATION_TYPE": "U", "NORAD_CAT_ID": 33945, "ELEMENT_SET_NO": 999, "REV_AT_EPOCH": 87863, "BSTAR": 0.00015807, "MEAN_MOTION_DOT": 4.22e-06, "MEAN_MOTION_DDOT": 0}, "tle": {"line1": "1 33945U 93036FA  25336.11120566  .00000422  00000+0  15807-3 0  9997", "line2": "2 33945  74.0293 325.7434 0021531  55.4109 304.9070 14.34586344878632"}}, "geometry": {"type": "Point", "coordinates": [-91.22126168468901, -71.04262333210455]}}, {"type": "Feature", "properties": {"norad_id": 33948, "name": "COSMOS 2251 DEB", "group": "cosmos-2251-debris", "lat": 73.9602322156554, "lon": 59.452834479219824, "alt_km": 755.0269939702011, "timestamp": "2025-12-02T08:59:33.107892+00:00", "meta": {"OBJECT_NAME": "COSMOS 2251 DEB", "OBJECT_ID": "1993-036FD", "EPOCH": "2025-12-02T01:52:48.455040", "MEAN_MOTION": 14.35608074, "ECCENTRICITY": 0.0022282, "INCLINATION": 74.0351, "RA_OF_ASC_NODE": 324.6961, "ARG_OF_PERICENTER": 43.6672, "MEAN_ANOMALY": 316.6238, "EPHEMERIS_TYPE": 0, "CLASSIFICATION_TYPE": "U", "NORAD_CAT_ID": 33948, "ELEMENT_SET_NO": 999, "REV_AT_EPOCH": 87870, "BSTAR": 0.00022847, "MEAN_MOTION_DOT": 6.34e-06, "MEAN_MOTION_DDOT": 0}, "tle": {"line1": "1 33948U 93036FD  25336.07833860  .00000634  00000+0  22847-3 0  9990", "line2": "2 33948  74.0351 324.6961 0022282  43.6672 316.6238 14.35608074878701"}}, "geometry": {"type": "Point", "coordinates": [59.452834479219824, 73.9602322156554]}}, {"type": "Feature", "properties": {"norad_id": 33971, "name": "COSMOS 2251 DEB", "group": "cosmos-2251-debris", "lat": 6.1984022633154385, "lon": -85.32886613596224, "alt_km": 748.5643864981303, "timestamp": "2025-12-02T08:59:33.107902+00:00", "meta": {"OBJECT_NAME": "COSMOS 2251 DEB", "OBJECT_ID": "1993-036FE", "EPOCH": "2025-12-02T04:27:52.554816", "MEAN_MOTION": 14.39690671, "ECCENTRICITY": 0.0018041, "INCLINATION": 74.0248, "RA_OF_ASC_NODE": 273.2368, "ARG_OF_PERICENTER": 15.8177, "MEAN_ANOMALY": 93.3474, "EPHEMERIS_TYPE": 0, "CLASSIFICATION_TYPE": "U", "NORAD_CAT_ID": 33971, "ELEMENT_SET_NO": 999, "REV_AT_EPOCH": 87987, "BSTAR": 0.00037768, "MEAN_MOTION_DOT": 1.158e-05, "MEAN_MOTION_DDOT": 0}, "tle": {"line1": "1 33971U 93036FE  25336.18602494  .00001158  00000+0  37768-3 0  9995", "line2": "2 33971  74.0248 273.2368 0018041  15.8177  93.3474 14.39690671879879"}}, "geometry": {"type": "Point", "coordinates": [-85.32886613596224, 6.1984022633154385]}}, {"type": "Feature", "properties": {"norad_id": 33972, "name": "COSMOS 2251 DEB", "group": "cosmos-2251-debris", "lat": 69.95479862079104, "lon": -98.37495269367068, "alt_km": 716.9164038761128, "timestamp": "2025-12-02T08:59:33.107912+00:00", "meta": {"OBJECT_NAME": "COSMOS 2251 DEB", "OBJECT_ID": "1993-036FF", "EPOCH": "2025-12-02T02:39:00.139392", "MEAN_MOTION": 14.36101943, "ECCENTRICITY": 0.0122862, "INCLINATION": 73.9949, "RA_OF_ASC_NODE": 210.2361, "ARG_OF_PERICENTER": 20.3713, "MEAN_ANOMALY": 130.5233, "EPHEMERIS_TYPE": 0, "CLASSIFICATION_TYPE": "U", "NORAD_CAT_ID": 33972, "ELEMENT_SET_NO": 999, "REV_AT_EPOCH": 86921, "BSTAR": 0.0012858, "MEAN_MOTION_DOT": 4.055e-05, "MEAN_MOTION_DDOT": 0}, "tle": {"line1": "1 33972U 93036FF  25336.11041828  .00004055  00000+0  12858-2 0  9998", "line2": "2 33972  73.9949 210.2361 0122862  20.3713 130.5233 14.36101943869214"}}, "geometry": {"type": "Point", "coordinates": [-98.37495269367068, 69.95479862079104]}}, {"type": "Feature", "properties": {"norad_id": 33973, "name": "COSMOS 2251 DEB", "group": "cosmos-2251-debris", "lat": -22.46275340312274, "lon": -50.944925428956395, "alt_km": 751.1016857815257, "timestamp": "2025-12-02T08:59:33.107923+00:00", "meta": {"OBJECT_NAME": "COSMOS 2251 DEB", "OBJECT_ID": "1993-036FG", "EPOCH": "2025-12-02T03:53:20.248224", "MEAN_MOTION": 14.45371129, "ECCENTRICITY": 0.0047094, "INCLINATION": 74.0067, "RA_OF_ASC_NODE": 122.6418, "ARG_OF_PERICENTER": 303.0611, "MEAN_ANOMALY": 234.7469, "EPHEMERIS_TYPE": 0, "CLASSIFICATION_TYPE": "U", "NORAD_CAT_ID": 33973, "ELEMENT_SET_NO": 999, "REV_AT_EPOCH": 88447, "BSTAR": 0.00017479, "MEAN_MOTION_DOT": 5.95e-06, "MEAN_MOTION_DDOT": 0}, "tle": {"line1": "1 33973U 93036FG  25336.16203991  .00000595  00000+0  17479-3 0  9995", "line2": "2 33973  74.0067 122.6418 0047094 303.0611 234.7469 14.45371129884476"}}, "geometry": {"type": "Point", "coordinates": [-50.944925428956395, -22.46275340312274]}}, {"type": "Feature", "properties": {"norad_id": 33975, "name": "COSMOS 2251 DEB", "group": "cosmos-2251-debris", "lat": 18.16306774377644, "lon": 108.14466046442946, "alt_km": 1000.592531281718, "timestamp": "2025-12-02T08:59:33.107933+00:00", "meta": {"OBJECT_NAME": "COSMOS 2251 DEB", "OBJECT_ID": "1993-036FJ", "EPOCH": "2025-12-02T02:02:33.375264", "MEAN_MOTION": 14.00483553, "ECCENTRICITY": 0.0191504, "INCLINATION": 73.8011, "RA_OF_ASC_NODE": 103.1811, "ARG_OF_PERICENTER": 237.7062, "MEAN_ANOMALY": 120.5396, "EPHEMERIS_TYPE": 0, "CLASSIFICATION_TYPE": "U", "NORAD_CAT_ID": 33975, "ELEMENT_SET_NO": 999, "REV_AT_EPOCH": 85680, "BSTAR": 0.00080774, "MEAN_MOTION_DOT": 1.378e-05, "MEAN_MOTION_DDOT": 0}, "tle": {"line1": "1 33975U 93036FJ  25336.08510851  .00001378  00000+0  80774-3 0  9992", "line2": "2 33975  73.8011 103.1811 0191504 237.7062 120.5396 14.00483553856807"}}, "geometry": {"type": "Point", "coordinates": [108.14466046442946, 18.16306774377644]}}]}